     2.100          NAVIGATION                              RINEX VERSION / TYPE
fic2rin                                 12/01/2013 00:23:35 PGM / RUN BY / DATE
                                                            END OF HEADER
 6 13 11 30 16  0  0.0  .172882340848D-03  .167119651451D-10  .000000000000D+00
     .250000000000D+02  .227500000000D+02  .511592738462D-08 -.461979429446D+00
     .111944973469D-05  .826102599967D-02  .862404704094D-05  .515368049812D+04
     .576000000000D+06  .707805156708D-07  .441724117343D+00 -.108033418655D-06
     .943130564168D+00  .204000000000D+03 -.201267336004D+00 -.836249118847D-08
     .653241495845D-09  .100000000000D+01  .176800000000D+04  .000000000000D+00
     .240000000000D+01  .000000000000D+00 -.512227416039D-08  .250000000000D+02
     .568806000000D+06  .400000000000D+01
 7 13 11 30 16  0  0.0  .286439899355D-03  .420641299570D-11  .000000000000D+00
     .440000000000D+02 -.713750000000D+02  .443268463911D-08  .243910863903D+01
    -.370852649212D-05  .700159056578D-02  .258535146713D-05  .515365794182D+04
     .576000000000D+06 -.188127160072D-06 -.156357172049D+01 -.130385160446D-07
     .974310742216D+00  .337562500000D+03 -.283736555864D+01 -.827427322812D-08
    -.232866842696D-09  .100000000000D+01  .176800000000D+04  .000000000000D+00
     .240000000000D+01  .000000000000D+00 -.107102096081D-07  .440000000000D+02
     .568806000000D+06  .400000000000D+01
 8 13 11 30 16  0  0.0  .102426856756D-04  .227373675443D-12  .000000000000D+00
     .139000000000D+03 -.855625000000D+02  .390551982343D-08  .186713036575D+01
    -.439956784248D-05  .134719371563D-01  .370666384697D-05  .515366461372D+04
     .576000000000D+06 -.214204192162D-06 -.146808008519D+01  .204890966415D-06
     .997310478396D+00  .331031250000D+03 -.280289978654D+01 -.806569311135D-08
    -.409302763389D-09  .100000000000D+01  .176800000000D+04  .000000000000D+00
     .340000000000D+01  .000000000000D+00 -.465661287308D-08  .139000000000D+03
     .568806000000D+06  .400000000000D+01
 9 13 11 30 16  0  0.0  .286979600787D-03  .284217094304D-11  .000000000000D+00
     .153000000000D+03 -.765937500000D+02  .415195866003D-08 -.267294479150D+01
    -.376813113689D-05  .168383643031D-01  .192783772945D-05  .515370550728D+04
     .576000000000D+06  .121071934700D-06 -.158538316781D+01  .171363353729D-06
     .982885300067D+00  .350125000000D+03  .174727925434D+01 -.797568936233D-08
    -.193936649668D-09  .100000000000D+01  .176800000000D+04  .000000000000D+00
     .340000000000D+01  .000000000000D+00 -.605359673500D-08  .153000000000D+03
     .568806000000D+06  .400000000000D+01
10 13 11 30 16  0  0.0 -.103936064988D-03 -.159161572810D-11  .000000000000D+00
     .410000000000D+02  .519687500000D+02  .477877048354D-08  .724873962596D-01
     .286288559437D-05  .132260594983D-01  .119823962450D-04  .515368686295D+04
     .576000000000D+06 -.372529029846D-08  .261826886904D+01  .186264514923D-06
     .942873447538D+00  .137375000000D+03  .836053062406D+00 -.825105797540D-08
    -.464662212189D-09  .100000000000D+01  .176800000000D+04  .000000000000D+00
     .240000000000D+01  .000000000000D+00 -.279396772385D-08  .410000000000D+02
     .568806000000D+06  .400000000000D+01
11 13 11 30 16  0  0.0 -.442603603005D-03 -.341060513165D-11  .000000000000D+00
     .540000000000D+02 -.956250000000D+01  .667849247173D-08  .267883831644D+01
    -.666826963425D-06  .147817964898D-01  .366382300854D-05  .515368564606D+04
     .576000000000D+06  .633299350739D-07  .124806055761D+01 -.236555933952D-06
     .889254498025D+00  .267312500000D+03  .124602965135D+01 -.892251451569D-08
    -.764317551180D-10  .100000000000D+01  .176800000000D+04  .000000000000D+00
     .240000000000D+01  .000000000000D+00 -.116415321827D-07  .540000000000D+02
     .568806000000D+06  .400000000000D+01
12 13 11 30 16  0  0.0  .171198975295D-03  .227373675443D-11  .000000000000D+00
     .460000000000D+02 -.110343750000D+03  .354300472323D-08  .213252851057D+01
    -.565499067307D-05  .457801588345D-02  .117141753435D-04  .515372837448D+04
     .576000000000D+06 -.875443220139D-07 -.502516955254D+00  .670552253723D-07
     .986229823379D+00  .164218750000D+03  .328168957691D+00 -.756960101855D-08
     .118576367753D-09  .100000000000D+01  .176800000000D+04  .000000000000D+00
     .240000000000D+01  .000000000000D+00 -.121071934700D-07  .460000000000D+02
     .568806000000D+06  .400000000000D+01
13 13 11 30 16  0  0.0  .546500086784D-04 -.375166564481D-11  .000000000000D+00
     .800000000000D+02  .111500000000D+03  .422446168007D-08 -.147606565467D+01
     .578910112381D-05  .504686823115D-02  .416301190853D-05  .515367166138D+04
     .576000000000D+06 -.223517417908D-07 -.252962948790D+01  .335276126862D-07
     .979759765350D+00  .311031250000D+03  .219330030733D+01 -.816641159239D-08
     .292869342041D-09  .100000000000D+01  .176800000000D+04  .000000000000D+00
     .240000000000D+01  .000000000000D+00 -.111758708954D-07  .800000000000D+02
     .568806000000D+06  .400000000000D+01
14 13 11 30 16  0  0.0  .209173653275D-03 -.113686837722D-11  .000000000000D+00
     .920000000000D+02  .121031250000D+03  .433910931275D-08 -.120749695822D+01
     .635720789433D-05  .734837132040D-02  .504218041897D-05  .515359177589D+04
     .576000000000D+06  .763684511185D-07 -.256021113642D+01  .197440385818D-06
     .972394278571D+00  .290562500000D+03 -.198456378560D+01 -.820712757409D-08
     .220366321999D-09  .100000000000D+01  .176800000000D+04  .000000000000D+00
     .240000000000D+01  .000000000000D+00 -.884756445885D-08  .920000000000D+02
     .568806000000D+06  .400000000000D+01
15 13 11 30 16  0  0.0 -.149815343320D-03 -.193267624127D-11  .000000000000D+00
     .960000000000D+02  .133406250000D+03  .498913638899D-08 -.169954817851D+01
     .683777034283D-05  .592726480681D-02  .567175447941D-05  .515361087799D+04
     .576000000000D+06 -.353902578354D-07 -.266628588684D+01 -.108033418655D-06
     .939044290187D+00  .260250000000D+03  .191212899002D+00 -.845142346428D-08
     .356443418728D-09  .100000000000D+01  .176800000000D+04  .000000000000D+00
     .340000000000D+01  .000000000000D+00 -.102445483208D-07  .960000000000D+02
     .568806000000D+06  .400000000000D+01
16 13 11 30 16  0  0.0 -.240293331444D-03  .113686837722D-11  .000000000000D+00
     .280000000000D+02 -.873750000000D+02  .358979238640D-08 -.409736758152D-01
    -.447593629360D-05  .716206489597D-02  .108964741230D-04  .515376549911D+04
     .576000000000D+06  .968575477600D-07 -.484049210547D+00 -.111758708954D-07
     .986885684664D+00  .182625000000D+03  .129829865809D+00 -.768139138936D-08
     .114290474943D-09  .100000000000D+01  .176800000000D+04  .000000000000D+00
     .240000000000D+01  .000000000000D+00 -.977888703346D-08  .280000000000D+02
     .568806000000D+06  .400000000000D+01
17 13 11 30 16  0  0.0 -.456599518657D-04 -.352429196937D-11  .000000000000D+00
     .750000000000D+02  .261562500000D+02  .474269755239D-08 -.993183786914D+00
     .155717134476D-05  .880347122438D-02  .783242285252D-05  .515370374298D+04
     .576000000000D+06  .931322574615D-07  .549748545496D+00  .210478901863D-06
     .967137525297D+00  .232187500000D+03 -.217710207814D+01 -.809676583423D-08
     .611454040944D-09  .100000000000D+01  .176800000000D+04  .000000000000D+00
     .240000000000D+01  .000000000000D+00 -.107102096081D-07  .750000000000D+02
     .568806000000D+06  .400000000000D+01
18 13 11 30 16  0  0.0  .287851318717D-03  .216004991671D-11  .000000000000D+00
     .106000000000D+03  .293750000000D+02  .517628704170D-08  .554092938206D+00
     .170245766640D-05  .145744988695D-01  .124014914036D-04  .515365952492D+04
     .576000000000D+06 -.230967998505D-06  .259851545926D+01  .782310962677D-07
     .926618426405D+00  .126125000000D+03 -.206967616488D+01 -.847892460982D-08
    -.572881005651D-09  .100000000000D+01  .176800000000D+04  .000000000000D+00
     .340000000000D+01  .000000000000D+00 -.111758708954D-07  .106000000000D+03
     .568806000000D+06  .400000000000D+01
19 13 11 30 16  0  0.0 -.422179233283D-03 -.261479726760D-11  .000000000000D+00
     .550000000000D+02  .327812500000D+02  .475234081121D-08 -.185997294688D+01
     .145286321640D-05  .963455240708D-02  .748038291931D-05  .515375823021D+04
     .576000000000D+06  .782310962677D-07  .601107846875D+00 -.102445483208D-06
     .964263600787D+00  .236250000000D+03  .398263308168D+00 -.804997817105D-08
     .704315051835D-09  .100000000000D+01  .176800000000D+04  .000000000000D+00
     .240000000000D+01  .000000000000D+00 -.149011611938D-07  .550000000000D+02
     .568806000000D+06  .400000000000D+01
20 13 11 30 16  0  0.0  .140941701829D-03  .295585778076D-11  .000000000000D+00
     .200000000000D+02  .298750000000D+02  .509128350097D-08  .103779066220D+01
     .151619315147D-05  .585058261640D-02  .117830932140D-04  .515363650513D+04
     .576000000000D+06 -.100582838058D-06  .254528001226D+01  .186264514923D-08
     .927458366672D+00  .135593750000D+03  .129052434862D+01 -.826748723117D-08
    -.482877256633D-09  .100000000000D+01  .176800000000D+04  .000000000000D+00
     .240000000000D+01  .000000000000D+00 -.791624188423D-08  .200000000000D+02
     .568806000000D+06  .400000000000D+01
21 13 11 30 16  0  0.0 -.330917071551D-03 -.170530256582D-11  .000000000000D+00
     .990000000000D+02 -.338125000000D+02  .583095716849D-08  .158467885761D+01
    -.199861824512D-05  .207128191832D-01  .576116144657D-05  .515358628273D+04
     .576000000000D+06 -.469386577606D-06  .155194983260D+01 -.247731804848D-06
     .931404383383D+00  .262062500000D+03 -.208676143591D+01 -.880358099020D-08
    -.332871008271D-09  .100000000000D+01  .176800000000D+04  .000000000000D+00
     .240000000000D+01  .000000000000D+00 -.111758708954D-07  .990000000000D+02
     .568806000000D+06  .400000000000D+01
